NORAD_CAT_ID,OBJECT_NAME,OBJECT_TYPE,EPOCH,MEAN_MOTION,ECCENTRICITY,INCLINATION,RA_OF_ASC_NODE,ARG_OF_PERICENTER,MEAN_ANOMALY,BSTAR,MEAN_MOTION_DOT,MEAN_MOTION_DDOT,TLE_LINE0,TLE_LINE1,TLE_LINE2,SEMIMAJOR_AXIS,PERIOD,APOGEE,PERIGEE,DECAYED
52342.0,STARLINK-3850,PAYLOAD,2022-09-21 17:28:21,15.08836296,0.0001889999999999,53.216,117.7488,51.3831,308.733,6.4353e-05,7.36e-06,0.0,0 STARLINK-3850,1 52342U 22045M   22264.72802843  .00000736  00000-0  64353-4 0  9990,2 52342  53.2160 117.7488 0001890  51.3831 308.7330 15.08836296 24817,6917.892,95.438,541.064,538.4490000000002,0.0
52342.0,STARLINK-3850,PAYLOAD,2022-09-22 07:46:49,15.08838781,0.0001955999999999,53.2158,115.0729,46.3043,313.8111,2.6692e-05,1.37e-06,0.0,0 STARLINK-3850,1 52342U 22045M   22265.32418837  .00000137  00000-0  26692-4 0  9992,2 52342  53.2158 115.0729 0001956  46.3043 313.8111 15.08838781 24900,6917.884,95.438,541.102,538.396,0.0
52342.0,STARLINK-3850,PAYLOAD,2022-09-22 20:29:55,15.08835066,0.0001953,53.2151,112.693,33.5131,326.5985,7.0896000000000015e-06,-1.75e-06,0.0,0 STARLINK-3850,1 52342U 22045M   22265.85411011 -.00000175  00000-0  70896-5 0  9996,2 52342  53.2151 112.6930 0001953  33.5131 326.5985 15.08835066 24984,6917.895,95.438,541.112,538.409,0.0
52342.0,STARLINK-3850,PAYLOAD,2022-09-22 23:40:41,15.0882458,0.0001818,53.216,112.0971,39.9229,320.1896,8.4785e-05,1.061e-05,0.0,0 STARLINK-3850,1 52342U 22045M   22265.98659321  .00001061  00000-0  84785-4 0  9993,2 52342  53.2160 112.0971 0001818  39.9229 320.1896 15.08824580 25005,6917.928000000001,95.439,541.05,538.535,0.0
52342.0,STARLINK-3850,PAYLOAD,2022-09-23 18:45:18,15.08840005,0.0001898,53.2157,108.5297,35.048,325.0637,1.1519e-05,-1.05e-06,0.0,0 STARLINK-3850,1 52342U 22045M   22266.78146960 -.00000105  00000-0  11519-4 0  9996,2 52342  53.2157 108.5297 0001898  35.0480 325.0637 15.08840005 25126,6917.88,95.438,541.058,538.432,0.0
52342.0,STARLINK-3850,PAYLOAD,2022-09-23 23:31:28,15.08842751,0.0001848,53.2156,107.637,37.3029,322.8091,3.8607e-05,3.26e-06,0.0,0 STARLINK-3850,1 52342U 22045M   22266.98018673  .00000326  00000-0  38607-4 0  9998,2 52342  53.2156 107.6370 0001848  37.3029 322.8091 15.08842751 25158,6917.871999999999,95.437,541.015,538.4590000000002,0.0
52342.0,STARLINK-3850,PAYLOAD,2022-09-24 20:11:29,15.08843056,0.0001749,53.2175,103.7733,41.9226,318.19,-0.00013978,-2.512e-05,0.0,0 STARLINK-3850,1 52342U 22045M   22267.84131267 -.00002512  00000-0 -13978-3 0  9993,2 52342  53.2175 103.7733 0001749  41.9226 318.1900 15.08843056 25289,6917.871,95.437,540.946,538.526,0.0
52342.0,STARLINK-3850,PAYLOAD,2022-09-25 05:43:48,15.08831773,0.0001753,53.2179,101.9894,52.6607,307.4545,6.0504e-05,6.75e-06,0.0,0 STARLINK-3850,1 52342U 22045M   22268.23875717  .00000675  00000-0  60504-4 0  9996,2 52342  53.2179 101.9894 0001753  52.6607 307.4545 15.08831773 25344,6917.906,95.438,540.9830000000002,538.558,0.0
52342.0,STARLINK-3850,PAYLOAD,2022-09-25 20:02:16,15.08844101,0.0001725,53.2168,99.3113,48.8301,311.284,6.1585e-05,6.92e-06,0.0,0 STARLINK-3850,1 52342U 22045M   22268.83490984  .00000692  00000-0  61585-4 0  9990,2 52342  53.2168  99.3113 0001725  48.8301 311.2840 15.08844101 25433,6917.868,95.437,540.9259999999998,538.54,0.0
52342.0,STARLINK-3850,PAYLOAD,2022-09-26 00:48:25,15.08846848,0.0001748,53.2173,98.4189,48.3901,311.7241,7.8768e-05,9.66e-06,0.0,0 STARLINK-3850,1 52342U 22045M   22269.03362725  .00000966  00000-0  78768-4 0  9999,2 52342  53.2173  98.4189 0001748  48.3901 311.7241 15.08846848 25461,6917.859,95.437,540.934,538.515,0.0
52342.0,STARLINK-3850,PAYLOAD,2022-09-26 15:06:54,15.08833784,0.0001738,53.2174,95.7422,44.4588,315.6543,2.6411e-05,1.32e-06,0.0,0 STARLINK-3850,1 52342U 22045M   22269.62979824  .00000132  00000-0  26411-4 0  9991,2 52342  53.2174  95.7422 0001738  44.4588 315.6543 15.08833784 25552,6917.899,95.438,540.967,538.562,0.0
52342.0,STARLINK-3850,PAYLOAD,2022-09-28 11:37:42,15.08838237,0.0001949,53.2172,87.4165,49.6913,310.425,2.5052e-05,1.11e-06,0.0,0 STARLINK-3850,1 52342U 22045M   22271.48451593  .00000111  00000-0  25052-4 0  9993,2 52342  53.2172  87.4165 0001949  49.6913 310.4250 15.08838237 25832,6917.886,95.438,541.099,538.4019999999998,0.0
52342.0,STARLINK-3850,PAYLOAD,2022-09-28 17:59:15,15.08832935,0.0001862,53.2168,86.2265,43.2259,316.8879,-7.7503e-05,-1.521e-05,0.0,0 STARLINK-3850,1 52342U 22045M   22271.74948186 -.00001521  00000-0 -77503-4 0  9997,2 52342  53.2168  86.2265 0001862  43.2259 316.8879 15.08832935 25872,6917.901999999999,95.438,541.055,538.479,0.0
52342.0,STARLINK-3850,PAYLOAD,2022-09-28 19:34:38,15.08832931,0.0001892,53.2169,85.9295,41.7775,318.3362,-7.9509e-05,-1.553e-05,0.0,0 STARLINK-3850,1 52342U 22045M   22271.81572214 -.00001553  00000-0 -79509-4 0  9993,2 52342  53.2169  85.9295 0001892  41.7775 318.3362 15.08832931 25882,6917.901999999999,95.438,541.076,538.4580000000002,0.0
52342.0,STARLINK-3850,PAYLOAD,2022-09-29 13:03:52,15.08837671,0.0001894,53.2168,82.6583,44.6681,315.4464,1.5742999999999998e-05,-3.8e-07,0.0,0 STARLINK-3850,1 52342U 22045M   22272.54435813 -.00000038  00000-0  15743-4 0  9993,2 52342  53.2168  82.6583 0001894  44.6681 315.4464 15.08837671 25994,6917.888000000001,95.438,541.063,538.442,0.0
52342.0,STARLINK-3850,PAYLOAD,2022-09-29 19:25:24,15.08840952,0.0001923,53.2169,81.4688,44.678,315.4367,4.332600000000001e-05,4.01e-06,0.0,0 STARLINK-3850,1 52342U 22045M   22272.80931559  .00000401  00000-0  43326-4 0  9991,2 52342  53.2169  81.4688 0001923  44.6780 315.4367 15.08840952 26035,6917.877,95.437,541.073,538.4119999999998,0.0
52342.0,STARLINK-3850,PAYLOAD,2022-09-30 11:19:15,15.0884446,0.0001996999999999,53.2168,78.4953,46.4779,313.6378,0.00011465,1.537e-05,0.0,0 STARLINK-3850,1 52342U 22045M   22273.47171101  .00001537  00000-0  11465-3 0  9993,2 52342  53.2168  78.4953 0001997  46.4779 313.6378 15.08844460 26135,6917.8669999999975,95.437,541.113,538.35,0.0
52342.0,STARLINK-3850,PAYLOAD,2022-09-30 19:16:12,15.08835149,0.000195,53.217,77.0083,44.1701,315.9446,0.0001097,1.458e-05,0.0,0 STARLINK-3850,1 52342U 22045M   22273.80291762  .00001458  00000-0  10970-3 0  9998,2 52342  53.2170  77.0083 0001950  44.1701 315.9446 15.08835149 26186,6917.895,95.438,541.109,538.411,0.0
52342.0,STARLINK-3850,PAYLOAD,2022-10-01 00:02:21,15.0883924,0.0001952,53.2171,76.1162,43.8752,316.2395,0.00013762,1.903e-05,0.0,0 STARLINK-3850,1 52342U 22045M   22274.00163457  .00001903  00000-0  13762-3 0  9997,2 52342  53.2171  76.1162 0001952  43.8752 316.2395 15.08839240 26216,6917.8830000000025,95.438,541.0980000000002,538.3969999999998,0.0
52342.0,STARLINK-3850,PAYLOAD,2022-10-01 12:45:26,15.08840466,0.0001956999999999,53.2171,73.7373,44.092,316.0228,7.2679e-05,8.69e-06,0.0,0 STARLINK-3850,1 52342U 22045M   22274.53155574  .00000869  00000-0  72679-4 0  9999,2 52342  53.2171  73.7373 0001957  44.0920 316.0228 15.08840466 26291,6917.879,95.438,541.0980000000002,538.39,0.0
52342.0,STARLINK-3850,PAYLOAD,2022-10-01 20:42:22,15.08841216,0.0001945,53.2171,72.2505,42.8728,317.2415,4.637300000000001e-05,4.5e-06,0.0,0 STARLINK-3850,1 52342U 22045M   22274.86275579  .00000450  00000-0  46373-4 0  9991,2 52342  53.2171  72.2505 0001945  42.8728 317.2415 15.08841216 26342,6917.877,95.437,541.087,538.396,0.0
52342.0,STARLINK-3850,PAYLOAD,2022-10-02 01:28:31,15.08846229,0.000196,53.2171,71.3583,42.395,317.7194,6.0833e-05,6.8e-06,0.0,0 STARLINK-3850,1 52342U 22045M   22275.06147153  .00000680  00000-0  60833-4 0  9992,2 52342  53.2171  71.3583 0001960  42.3950 317.7194 15.08846229 26378,6917.861,95.437,541.082,538.37,0.0
52342.0,STARLINK-3850,PAYLOAD,2022-10-02 11:00:50,15.08838028,0.0001958,53.2172,69.5744,42.8472,317.2672,-4.419e-05,-9.91e-06,0.0,0 STARLINK-3850,1 52342U 22045M   22275.45891979 -.00000991  00000-0 -44190-4 0  9992,2 52342  53.2172  69.5744 0001958  42.8472 317.2672 15.08838028 26439,6917.886,95.438,541.106,538.3969999999998,0.0
52342.0,STARLINK-3850,PAYLOAD,2022-10-02 20:33:09,15.08840464,0.0001966999999999,53.2173,67.7901,40.065,320.0487,7.4905e-05,9.04e-06,0.0,0 STARLINK-3850,1 52342U 22045M   22275.85635502  .00000904  00000-0  74905-4 0  9993,2 52342  53.2173  67.7901 0001967  40.0650 320.0487 15.08840464 26492,6917.879,95.438,541.105,538.383,0.0
52342.0,STARLINK-3850,PAYLOAD,2022-10-03 02:54:41,15.08850602,0.0001940999999999,53.2173,66.6006,40.167,319.9465,0.00010372,1.363e-05,0.0,0 STARLINK-3850,1 52342U 22045M   22276.12130807  .00001363  00000-0  10372-3 0  9999,2 52342  53.2173  66.6006 0001941  40.1670 319.9465 15.08850602 26534,6917.848000000001,95.437,541.056,538.37,0.0
52342.0,STARLINK-3850,PAYLOAD,2022-10-03 10:51:37,15.0884359,0.0001948,53.2174,65.1136,41.4808,318.6332,1.6516e-05,-2.5e-07,0.0,0 STARLINK-3850,1 52342U 22045M   22276.45251384 -.00000025  00000-0  16516-4 0  9991,2 52342  53.2174  65.1136 0001948  41.4808 318.6332 15.08843590 26589,6917.869000000002,95.437,541.082,538.387,0.0
52342.0,STARLINK-3850,PAYLOAD,2022-10-03 12:27:00,15.08845272,0.0002019,53.2174,64.8162,37.9967,322.1167,1.551e-05,-4.1e-07,0.0,0 STARLINK-3850,1 52342U 22045M   22276.51875275 -.00000041  00000-0  15510-4 0  9990,2 52342  53.2174  64.8162 0002019  37.9967 322.1167 15.08845272 26596,6917.864000000001,95.437,541.126,538.3330000000002,0.0
52342.0,STARLINK-3850,PAYLOAD,2022-10-03 20:23:55,15.08847895,0.0001976,53.2175,63.3295,41.2592,318.8549,0.00015106,2.117e-05,0.0,0 STARLINK-3850,1 52342U 22045M   22276.84994696  .00002117  00000-0  15106-3 0  9990,2 52342  53.2175  63.3295 0001976  41.2592 318.8549 15.08847895 26646,6917.856,95.437,541.0880000000002,538.354,0.0
52342.0,STARLINK-3850,PAYLOAD,2022-10-03 21:59:18,15.08850381,0.0001978,53.2174,63.032,41.2406,318.8735,0.00016312,2.31e-05,0.0,0 STARLINK-3850,1 52342U 22045M   22276.91618495  .00002310  00000-0  16312-3 0  9993,2 52342  53.2174  63.0320 0001978  41.2406 318.8735 15.08850381 26659,6917.849,95.437,541.082,538.345,0.0
